{
"type": "FeatureCollection",
"name": "simplified_kakapo",
"crs": { "type": "name", "properties": { "name": "urn:ogc:def:crs:EPSG::2193" } },
"features": [
{ "type": "Feature", "properties": { }, "geometry": { "type": "LineString", "coordinates": [ [ 1549159.320011927979067, 5278502.524403936229646 ], [ 1549458.240596043877304, 5278602.164598644711077 ], [ 1549580.71500203711912, 5278655.098452081903815 ], [ 1549702.151489335577935, 5278673.780988589860499 ], [ 1549816.322545769857243, 5278692.46352509688586 ], [ 1549983.427455642260611, 5278762.004077652469277 ], [ 1550221.110836764797568, 5278866.833865833468735 ], [ 1550583.344461270142347, 5279030.825019619427621 ], [ 1551120.986345206853002, 5279252.939620318822563 ], [ 1551828.846895100316033, 5279516.570968812331557 ], [ 1551999.065561057068408, 5279570.542740945704281 ], [ 1552264.513267266331241, 5279624.773992751725018 ], [ 1552308.62481179763563, 5279642.418610564433038 ], [ 1552363.89398229890503, 5279662.917504787445068 ], [ 1552382.576518806163222, 5279672.258773041889071 ], [ 1552466.647933090105653, 5279702.877374539151788 ], [ 1552559.022696932312101, 5279737.647650817409158 ], [ 1552653.992257511708885, 5279767.228333620354533 ], [ 1552775.94770415709354, 5279808.226122067309916 ], [ 1552949.280126198194921, 5279865.311650284565985 ], [ 1553125.207344976486638, 5279920.32134111225605 ], [ 1553250.276547706918791, 5279944.712430441752076 ], [ 1553374.307831742335111, 5279976.887909981422126 ], [ 1553498.858075124910101, 5280009.582348869182169 ], [ 1553587.600123535143211, 5280033.454478850588202 ], [ 1553723.048513213871047, 5280081.717698161490262 ], [ 1553804.525130760157481, 5280099.881275321356952 ], [ 1553896.89989460259676, 5280126.867161387577653 ], [ 1554032.348284281324595, 5280161.637437665835023 ], [ 1554135.621194419451058, 5280196.40771394316107 ], [ 1554242.526819989783689, 5280217.166087840683758 ], [ 1554438.174493970582262, 5280304.870217555202544 ], [ 1554546.118038235697895, 5280342.235290570184588 ], [ 1554739.170915479073301, 5280413.85168051533401 ], [ 1554929.11003663786687, 5280482.354314375668764 ], [ 1555065.077385664219037, 5280539.439842592924833 ], [ 1555297.571173312142491, 5280635.966281214728951 ], [ 1555567.43003397481516, 5280737.682313310913742 ], [ 1555783.317122505046427, 5280802.033272392116487 ], [ 1556003.355885814875364, 5280853.929207134991884 ], [ 1556447.585087213432416, 5280934.886865333653986 ], [ 1556916.724337288876995, 5281011.692848752252758 ], [ 1557323.588465672684833, 5281113.408880848437548 ], [ 1557771.969341850839555, 5281242.110799010843039 ], [ 1558612.683484684908763, 5281572.168943975120783 ], [ 1558959.348328767111525, 5281781.828520336188376 ], [ 1559424.335904063191265, 5281918.833788057789207 ], [ 1559914.23352803546004, 5282003.943121035583317 ], [ 1560235.988323441240937, 5282070.369917506352067 ], [ 1560489.240484986221418, 5282124.341689638793468 ], [ 1560752.871833479963243, 5282203.223510447889566 ], [ 1561039.337393260328099, 5282300.787867764011025 ], [ 1561244.845294842030853, 5282419.110598977655172 ], [ 1561523.007505063666031, 5282551.964191920123994 ], [ 1561730.59124403516762, 5282632.921850118786097 ] ] } }
]
}
